ONEWEB-0098             
1 45442U 20020U   25058.55026544 -.00000087  00000+0 -28043-3 0  9990
2 45442  87.8847 115.6810 0002058  92.9947 267.1416 13.11416465240432
ONEWEB-0055             
1 45443U 20020V   25058.53586489  .00000504  00000+0  13854-2 0  9993
2 45443  87.8850 115.6871 0001997  99.5718 260.5636 13.11415673240402
ONEWEB-0093             
1 45444U 20020W   25058.58770935  .00000204  00000+0  53983-3 0  9995
2 45444  87.8853 115.6596 0002224 103.2878 256.8498 13.11419456240478
ONEWEB-0029             
1 45445U 20020X   25058.52991576  .00000615  00000+0  17006-2 0  9997
2 45445  87.8851 115.6847 0001976 105.6360 254.4986 13.11417999240444
ONEWEB-0068             
1 45446U 20020Y   25058.43484038  .00000232  00000+0  62010-3 0  9999
2 45446  87.8850 115.6916 0002069 104.2138 255.9220 13.11418360240375
ONEWEB-0046             
1 45447U 20020Z   25058.42649099 -.00000112  00000+0 -35065-3 0  9998
2 45447  87.8853 115.7028 0001727 107.2342 252.8975 13.11418236240380
ONEWEB-0063             
1 45448U 20020AA  25058.53161771  .00000614  00000+0  16969-2 0  9993
2 45448  87.8850 115.6809 0001653 100.5087 259.6228 13.11417236240480
ONEWEB-0019             
1 45449U 20020AB  25058.58247880  .00000037  00000+0  69806-4 0  9994
2 45449  87.8855 115.6838 0001910  95.0131 265.1215 13.11418268240330
